{"type": "FeatureCollection", "features": [ {"type": "Feature", "properties": {"norad_id": 33153, "name": "INTELSAT 25 (IS-25)", "group": "intelsat", "lat": -1.489881553825954, "lon": -55.95069612451878, "alt_km": 35770.47214419821, "timestamp": "2025-12-14T16:47:40.350708+00:00", "meta": {"OBJECT_NAME": "INTELSAT 25 (IS-25)", "OBJECT_ID": "2008-034A", "EPOCH": "2025-12-13T21:51:34.738272", "MEAN_MOTION": 1.00271684, "ECCENTRICITY": 0.00049501, "INCLINATION": 2.2308, "RA_OF_ASC_NODE": 82.6375, "ARG_OF_PERICENTER": 180.7725, "MEAN_ANOMALY": 115.8293, "EPHEMERIS_TYPE": 0, "CLASSIFICATION_TYPE": "U", "NORAD_CAT_ID": 33153, "ELEMENT_SET_NO": 999, "REV_AT_EPOCH": 6383, "BSTAR": 0, "MEAN_MOTION_DOT": -2.08e-06, "MEAN_MOTION_DDOT": 0}, "tle": {"line1": "1 33153U 08034A   25347.91081873 -.00000208  00000+0  00000+0 0  9997", "line2": "2 33153   2.2308  82.6375 0004950 180.7725 115.8293  1.00271684 63839"}}, "geometry": {"type": "Point", "coordinates": [-55.95069612451878, -1.489881553825954]}}, {"type": "Feature", "properties": {"norad_id": 33376, "name": "GALAXY 19 (G-19)", "group": "intelsat", "lat": -0.03533917118189968, "lon": -121.4991357570889, "alt_km": 35777.06670231144, "timestamp": "2025-12-14T16:47:40.350720+00:00", "meta": {"OBJECT_NAME": "GALAXY 19 (G-19)", "OBJECT_ID": "2008-045A", "EPOCH": "2025-12-13T21:32:59.019648", "MEAN_MOTION": 1.00269817, "ECCENTRICITY": 0.00025666, "INCLINATION": 0.02, "RA_OF_ASC_NODE": 3.8233, "ARG_OF_PERICENTER": 262.7059, "MEAN_ANOMALY": 42.5384, "EPHEMERIS_TYPE": 0, "CLASSIFICATION_TYPE": "U", "NORAD_CAT_ID": 33376, "ELEMENT_SET_NO": 999, "REV_AT_EPOCH": 6304, "BSTAR": 0, "MEAN_MOTION_DOT": 0, "MEAN_MOTION_DDOT": 0}, "tle": {"line1": "1 33376U 08045A   25347.89790532  .00000000  00000+0  00000+0 0  9991", "line2": "2 33376   0.0200   3.8233 0002566 262.7059  42.5384  1.00269817 63048"}}, "geometry": {"type": "Point", "coordinates": [-121.4991357570889, -0.03533917118189968]}}, {"type": "Feature", "properties": {"norad_id": 35493, "name": "FM-5", "group": "intelsat", "lat": -0.02747333379201346, "lon": -110.60979998345243, "alt_km": 35786.04722031456, "timestamp": "2025-12-14T16:47:40.350731+00:00", "meta": {"OBJECT_NAME": "FM-5", "OBJECT_ID": "2009-034A", "EPOCH": "2025-12-13T21:35:58.733376", "MEAN_MOTION": 1.00271728, "ECCENTRICITY": 8.552e-05, "INCLINATION": 0.0194, "RA_OF_ASC_NODE": 288.5437, "ARG_OF_PERICENTER": 232.5781, "MEAN_ANOMALY": 159.5571, "EPHEMERIS_TYPE": 0, "CLASSIFICATION_TYPE": "U", "NORAD_CAT_ID": 35493, "ELEMENT_SET_NO": 999, "REV_AT_EPOCH": 4478, "BSTAR": 0, "MEAN_MOTION_DOT": -1.84e-06, "MEAN_MOTION_DDOT": 0}, "tle": {"line1": "1 35493U 09034A   25347.89998534 -.00000184  00000+0  00000+0 0  9998", "line2": "2 35493   0.0194 288.5437 0000855 232.5781 159.5571  1.00271728 44787"}}, "geometry": {"type": "Point", "coordinates": [-110.60979998345243, -0.02747333379201346]}}, {"type": "Feature", "properties": {"norad_id": 36097, "name": "INTELSAT 14 (IS-14)", "group": "intelsat", "lat": -0.02819232883509485, "lon": -69.46007045503421, "alt_km": 35776.53571022427, "timestamp": "2025-12-14T16:47:40.350743+00:00", "meta": {"OBJECT_NAME": "INTELSAT 14 (IS-14)", "OBJECT_ID": "2009-064A", "EPOCH": "2025-12-13T21:47:42.609120", "MEAN_MOTION": 1.00271954, "ECCENTRICITY": 0.00024509, "INCLINATION": 0.0188, "RA_OF_ASC_NODE": 40.528, "ARG_OF_PERICENTER": 227.6536, "MEAN_ANOMALY": 96.5863, "EPHEMERIS_TYPE": 0, "CLASSIFICATION_TYPE": "U", "NORAD_CAT_ID": 36097, "ELEMENT_SET_NO": 999, "REV_AT_EPOCH": 5874, "BSTAR": 0, "MEAN_MOTION_DOT": -2.57e-06, "MEAN_MOTION_DDOT": 0}, "tle": {"line1": "1 36097U 09064A   25347.90813205 -.00000257  00000+0  00000+0 0  9996", "line2": "2 36097   0.0188  40.5280 0002450 227.6536  96.5863  1.00271954 58745"}}, "geometry": {"type": "Point", "coordinates": [-69.46007045503421, -0.02819232883509485]}}, {"type": "Feature", "properties": {"norad_id": 36106, "name": "INTELSAT 15 (IS-15)", "group": "intelsat", "lat": 0.03136560016745624, "lon": 60.69134576009288, "alt_km": 35794.24296606487, "timestamp": "2025-12-14T16:47:40.350755+00:00", "meta": {"OBJECT_NAME": "INTELSAT 15 (IS-15)", "OBJECT_ID": "2009-067A", "EPOCH": "2025-12-13T23:19:38.640864", "MEAN_MOTION": 1.002722, "ECCENTRICITY": 0.00022617, "INCLINATION": 0.0161, "RA_OF_ASC_NODE": 300.7776, "ARG_OF_PERICENTER": 330.5961, "MEAN_ANOMALY": 246.5888, "EPHEMERIS_TYPE": 0, "CLASSIFICATION_TYPE": "U", "NORAD_CAT_ID": 36106, "ELEMENT_SET_NO": 999, "REV_AT_EPOCH": 3937, "BSTAR": 0, "MEAN_MOTION_DOT": -1.69e-06, "MEAN_MOTION_DDOT": 0}, "tle": {"line1": "1 36106U 09067A   25347.97197501 -.00000169  00000+0  00000+0 0  9993", "line2": "2 36106   0.0161 300.7776 0002261 330.5961 246.5888  1.00272200 39371"}}, "geometry": {"type": "Point", "coordinates": [60.69134576009288, 0.03136560016745624]}}, {"type": "Feature", "properties": {"norad_id": 36131, "name": "DIRECTV 12", "group": "intelsat", "lat": 0.018805379338432418, "lon": -127.19987110335849, "alt_km": 35787.3143193919, "timestamp": "2025-12-14T16:47:40.350767+00:00", "meta": {"OBJECT_NAME": "DIRECTV 12", "OBJECT_ID": "2009-075A", "EPOCH": "2025-12-13T21:31:14.187072", "MEAN_MOTION": 1.00270927, "ECCENTRICITY": 3.992e-05, "INCLINATION": 0.0436, "RA_OF_ASC_NODE": 150.2562, "ARG_OF_PERICENTER": 208.41, "MEAN_ANOMALY": 304.2492, "EPHEMERIS_TYPE": 0, "CLASSIFICATION_TYPE": "U", "NORAD_CAT_ID": 36131, "ELEMENT_SET_NO": 999, "REV_AT_EPOCH": 4469, "BSTAR": 0, "MEAN_MOTION_DOT": -8.7e-07, "MEAN_MOTION_DDOT": 0}, "tle": {"line1": "1 36131U 09075A   25347.89669198 -.00000087  00000+0  00000+0 0  9996", "line2": "2 36131   0.0436 150.2562 0000399 208.4100 304.2492  1.00270927 44691"}}, "geometry": {"type": "Point", "coordinates": [-127.19987110335849, 0.018805379338432418]}}, {"type": "Feature", "properties": {"norad_id": 36397, "name": "INTELSAT 16 (IS-16)", "group": "intelsat", "lat": -0.02651409790436602, "lon": -100.67391032606308, "alt_km": 35777.62592212701, "timestamp": "2025-12-14T16:47:40.350778+00:00", "meta": {"OBJECT_NAME": "INTELSAT 16 (IS-16)", "OBJECT_ID": "2010-006A", "EPOCH": "2025-12-13T21:38:50.957952", "MEAN_MOTION": 1.002719, "ECCENTRICITY": 0.00020206, "INCLINATION": 0.0083, "RA_OF_ASC_NODE": 323.6985, "ARG_OF_PERICENTER": 302.0831, "MEAN_ANOMALY": 65.5647, "EPHEMERIS_TYPE": 0, "CLASSIFICATION_TYPE": "U", "NORAD_CAT_ID": 36397, "ELEMENT_SET_NO": 999, "REV_AT_EPOCH": 5779, "BSTAR": 0, "MEAN_MOTION_DOT": -2.28e-06, "MEAN_MOTION_DDOT": 0}, "tle": {"line1": "1 36397U 10006A   25347.90197868 -.00000228  00000+0  00000+0 0  9995", "line2": "2 36397   0.0083 323.6985 0002020 302.0831  65.5647  1.00271900 57799"}}, "geometry": {"type": "Point", "coordinates": [-100.67391032606308, -0.02651409790436602]}}, {"type": "Feature", "properties": {"norad_id": 37185, "name": "XM-5", "group": "intelsat", "lat": -0.06417380850911107, "lon": -139.64969314264494, "alt_km": 35783.569436465295, "timestamp": "2025-12-14T16:47:40.350790+00:00", "meta": {"OBJECT_NAME": "XM-5", "OBJECT_ID": "2010-053A", "EPOCH": "2025-12-13T21:27:44.521920", "MEAN_MOTION": 1.00271123, "ECCENTRICITY": 0.00018494, "INCLINATION": 0.0622, "RA_OF_ASC_NODE": 272.3833, "ARG_OF_PERICENTER": 238.252, "MEAN_ANOMALY": 138.9302, "EPHEMERIS_TYPE": 0, "CLASSIFICATION_TYPE": "U", "NORAD_CAT_ID": 37185, "ELEMENT_SET_NO": 999, "REV_AT_EPOCH": 5562, "BSTAR": 0, "MEAN_MOTION_DOT": -7e-08, "MEAN_MOTION_DDOT": 0}, "tle": {"line1": "1 37185U 10053A   25347.89426530 -.00000007  00000+0  00000+0 0  9997", "line2": "2 37185   0.0622 272.3833 0001849 238.2520 138.9302  1.00271123 55629"}}, "geometry": {"type": "Point", "coordinates": [-139.64969314264494, -0.06417380850911107]}}, {"type": "Feature", "properties": {"norad_id": 37238, "name": "INTELSAT 17 (IS-17)", "group": "intelsat", "lat": 1.3417304395552064e-05, "lon": 41.551156335966624, "alt_km": 35791.8364267066, "timestamp": "2025-12-14T16:47:40.350802+00:00", "meta": {"OBJECT_NAME": "INTELSAT 17 (IS-17)", "OBJECT_ID": "2010-065B", "EPOCH": "2025-12-13T22:19:24.572928", "MEAN_MOTION": 1.00271757, "ECCENTRICITY": 0.0002606, "INCLINATION": 0.0129, "RA_OF_ASC_NODE": 106.1202, "ARG_OF_PERICENTER": 173.9466, "MEAN_ANOMALY": 203.6441, "EPHEMERIS_TYPE": 0, "CLASSIFICATION_TYPE": "U", "NORAD_CAT_ID": 37238, "ELEMENT_SET_NO": 999, "REV_AT_EPOCH": 5139, "BSTAR": 0, "MEAN_MOTION_DOT": 1.5e-07, "MEAN_MOTION_DDOT": 0}, "tle": {"line1": "1 37238U 10065B   25347.93014552  .00000015  00000+0  00000+0 0  9999", "line2": "2 37238   0.0129 106.1202 0002606 173.9466 203.6441  1.00271757 51397"}}, "geometry": {"type": "Point", "coordinates": [41.551156335966624, 1.3417304395552064e-05]}}, {"type": "Feature", "properties": {"norad_id": 37392, "name": "INTELSAT 28 (IS-28)", "group": "intelsat", "lat": -0.8455601596248769, "lon": -56.134206432802564, "alt_km": 35773.20663537624, "timestamp": "2025-12-14T16:47:40.350813+00:00", "meta": {"OBJECT_NAME": "INTELSAT 28 (IS-28)", "OBJECT_ID": "2011-016A", "EPOCH": "2025-12-13T21:51:34.738272", "MEAN_MOTION": 1.00272983, "ECCENTRICITY": 0.00037395, "INCLINATION": 1.3277, "RA_OF_ASC_NODE": 85.0416, "ARG_OF_PERICENTER": 182.3185, "MEAN_ANOMALY": 111.6909, "EPHEMERIS_TYPE": 0, "CLASSIFICATION_TYPE": "U", "NORAD_CAT_ID": 37392, "ELEMENT_SET_NO": 999, "REV_AT_EPOCH": 5142, "BSTAR": 0, "MEAN_MOTION_DOT": -2.08e-06, "MEAN_MOTION_DDOT": 0}, "tle": {"line1": "1 37392U 11016A   25347.91081873 -.00000208  00000+0  00000+0 0  9990", "line2": "2 37392   1.3277  85.0416 0003739 182.3185 111.6909  1.00272983 51421"}}, "geometry": {"type": "Point", "coordinates": [-56.134206432802564, -0.8455601596248769]}}]}